H1 CPF  1  DLR 2022 08 18 10  7302 technosat            
H2  1704205 6203    42829 2022 08 18 00 00 00 2022 08 25 00 00 00    60 1 1  0 0 0
H9
10 0 59812  28800.000000  0       4973127.579        123646.978      -4906107.767
10 0 59812  28860.000000  0       5277051.304         26083.520      -4579125.452
10 0 59812  28920.000000  0       5558050.855        -74148.093      -4232862.491
10 0 59812  28980.000000  0       5814919.909       -176422.842      -3868768.347
10 0 59812  29040.000000  0       6046557.105       -280096.637      -3488368.734
10 0 59812  29100.000000  0       6251971.069       -384509.938      -3093259.512
10 0 59812  29160.000000  0       6430285.010       -488991.503      -2685100.180
10 0 59812  29220.000000  0       6580740.806       -592862.233      -2265607.024
10 0 59812  29280.000000  0       6702702.532       -695439.075      -1836545.975
10 0 59812  29340.000000  0       6795659.463       -796038.985      -1399725.221
10 0 59812  29400.000000  0       6859228.518       -893982.939       -956987.597
10 0 59812  29460.000000  0       6893156.099       -988599.951       -510202.779
10 0 59812  29520.000000  0       6897319.382      -1079231.080        -61259.333
10 0 59812  29580.000000  0       6871726.995      -1165233.406        387943.421
10 0 59812  29640.000000  0       6816518.987      -1245983.942        835503.624
10 0 59812  29700.000000  0       6731966.206      -1320883.467       1279525.022
10 0 59812  29760.000000  0       6618469.169      -1389360.286       1718125.183
10 0 59812  29820.000000  0       6476556.201      -1450873.805       2149443.773
10 0 59812  29880.000000  0       6306880.865      -1504917.916       2571650.634
10 0 59812  29940.000000  0       6110218.895      -1551024.232       2982953.659
10 0 59812  30000.000000  0       5887464.592      -1588765.162       3381606.547
10 0 59812  30060.000000  0       5639626.604      -1617756.780       3765916.354
10 0 59812  30120.000000  0       5367823.187      -1637661.444       4134250.759
10 0 59812  30180.000000  0       5073276.984      -1648190.143       4485045.059
10 0 59812  30240.000000  0       4757309.348      -1649104.590       4816808.826
10 0 59812  30300.000000  0       4421334.267      -1640219.011       5128132.253
10 0 59812  30360.000000  0       4066851.885      -1621401.702       5417692.176
10 0 59812  30420.000000  0       3695441.581      -1592576.294       5684257.701
10 0 59812  30480.000000  0       3308754.719      -1553722.729       5926695.337
10 0 59812  30540.000000  0       2908507.166      -1504877.918       6143973.681
10 0 59812  30600.000000  0       2496471.619      -1446136.116       6335167.734
10 0 59812  30660.000000  0       2074469.643      -1377649.013       6499462.795
10 0 59812  30720.000000  0       1644363.512      -1299625.513       6636157.864
10 0 59812  30780.000000  0       1208047.898      -1212331.160       6744668.584
10 0 59812  30840.000000  0        767441.439      -1116087.280       6824529.646
10 0 59812  30900.000000  0        324478.300      -1011269.822       6875396.728
10 0 59812  30960.000000  0       -118900.361       -898307.905       6897047.953
10 0 59812  31020.000000  0       -560754.870       -777682.102       6889384.844
10 0 59812  31080.000000  0       -999155.532       -649922.425       6852432.879
10 0 59812  31140.000000  0      -1432191.110       -515606.008       6786341.487
10 0 59812  31200.000000  0      -1857977.165       -375354.520       6691383.536
10 0 59812  31260.000000  0      -2274664.301       -229831.337       6567954.411
10 0 59812  31320.000000  0      -2680446.311        -79738.431       6416570.564
10 0 59812  31380.000000  0      -3073568.136         74186.974       6237867.556
10 0 59812  31440.000000  0      -3452333.643        231175.947       6032597.626
10 0 59812  31500.000000  0      -3815113.203        390431.639       5801626.739
10 0 59812  31560.000000  0      -4160350.965        551133.261       5545931.072
10 0 59812  31620.000000  0      -4486571.786        712440.228       5266593.078
10 0 59812  31680.000000  0      -4792387.888        873496.491       4964797.085
10 0 59812  31740.000000  0      -5076505.128       1033435.022       4641824.363
10 0 59812  31800.000000  0      -5337728.811       1191382.397       4299047.699
10 0 59812  31860.000000  0      -5574969.017       1346463.458       3937925.595
10 0 59812  31920.000000  0      -5787245.495       1497806.063       3559996.072
10 0 59812  31980.000000  0      -5973692.049       1644545.884       3166870.061
10 0 59812  32040.000000  0      -6133560.385       1785831.190       2760224.422
10 0 59812  32100.000000  0      -6266223.409       1920827.612       2341794.644
10 0 59812  32160.000000  0      -6371177.952       2048722.882       1913367.244
10 0 59812  32220.000000  0      -6448046.905       2168731.510       1476771.859
10 0 59812  32280.000000  0      -6496580.670       2280099.352       1033873.074
10 0 59812  32340.000000  0      -6516657.936       2382108.008        586562.109
10 0 59812  32400.000000  0      -6508285.846       2474079.039        136748.416
10 0 59812  32460.000000  0      -6471599.555       2555378.010       -313648.843
10 0 59812  32520.000000  0      -6406861.069       2625418.298       -762709.362
10 0 59812  32580.000000  0      -6314457.498       2683664.658      -1208520.177
10 0 59812  32640.000000  0      -6194898.723       2729636.561      -1649184.128
10 0 59812  32700.000000  0      -6048814.451       2762911.235      -2082828.282
10 0 59812  32760.000000  0      -5876950.581       2783126.393      -2507612.177
10 0 59812  32820.000000  0      -5680165.056       2789982.609      -2921735.794
10 0 59812  32880.000000  0      -5459423.240       2783245.356      -3323447.303
10 0 59812  32940.000000  0      -5215792.792       2762746.709      -3711050.518
10 0 59812  33000.000000  0      -4950438.117       2728386.731      -4082912.037
10 0 59812  33060.000000  0      -4664614.402       2680134.487      -4437468.026
10 0 59812  33120.000000  0      -4359661.285       2618028.688      -4773230.627
10 0 59812  33180.000000  0      -4036996.210       2542177.999      -5088793.932
10 0 59812  33240.000000  0      -3698107.539       2452761.030      -5382839.543
10 0 59812  33300.000000  0      -3344547.480       2350025.973      -5654141.714
10 0 59812  33360.000000  0      -2977924.813       2234289.911      -5901572.137
10 0 59812  33420.000000  0      -2599897.413       2105937.793      -6124104.300
10 0 59812  33480.000000  0      -2212164.571       1965421.060      -6320817.367
10 0 59812  33540.000000  0      -1816459.255       1813255.937      -6490899.474
10 0 59812  33600.000000  0      -1414540.456       1650021.471      -6633650.601
10 0 59812  33660.000000  0      -1008185.486       1476357.280      -6748485.128
10 0 59812  33720.000000  0       -599182.198       1292960.975      -6834933.858
10 0 59812  33780.000000  0       -189321.323       1100585.358      -6892645.529
10 0 59812  33840.000000  0        219611.048        900035.395      -6921388.017
10 0 59812  33900.000000  0        625841.040        692164.912      -6921049.217
10 0 59812  33960.000000  0       1027614.566        477872.995      -6891637.383
10 0 59812  34020.000000  0       1423204.716        258100.167      -6833280.904
10 0 59812  34080.000000  0       1810918.917         33824.361      -6746227.666
10 0 59812  34140.000000  0       2189105.892       -193943.284      -6630844.047
10 0 59812  34200.000000  0       2556162.525       -424162.825      -6487613.574
10 0 59812  34260.000000  0       2910540.575       -655770.142      -6317135.014
10 0 59812  34320.000000  0       3250753.017       -887681.688      -6120119.993
10 0 59812  34380.000000  0       3575380.120      -1118799.337      -5897390.305
10 0 59812  34440.000000  0       3883075.350      -1348015.417      -5649874.893
10 0 59812  34500.000000  0       4172571.030      -1574217.924      -5378606.300
10 0 59812  34560.000000  0       4442683.620      -1796295.809      -5084716.667
10 0 59812  34620.000000  0       4692318.653      -2013144.308      -4769433.331
10 0 59812  34680.000000  0       4920475.285      -2223670.336      -4434074.031
10 0 59812  34740.000000  0       5126250.493      -2426797.884      -4080041.732
10 0 59812  34800.000000  0       5308842.859      -2621473.424      -3708819.058
10 0 59812  34860.000000  0       5467555.952      -2806671.284      -3321962.337
10 0 59812  34920.000000  0       5601801.232      -2981398.961      -2921095.284
10 0 59812  34980.000000  0       5711100.479      -3144702.345      -2507902.320
10 0 59812  35040.000000  0       5795087.679      -3295670.802      -2084121.613
10 0 59812  35100.000000  0       5853510.448      -3433442.118      -1651537.894
10 0 59812  35160.000000  0       5886230.970      -3557207.289      -1211974.975
10 0 59812  35220.000000  0       5893226.356      -3666215.112       -767288.012
10 0 59812  35280.000000  0       5874588.442      -3759776.475       -319355.624
10 0 59812  35340.000000  0       5830523.092      -3837268.414        129928.111
10 0 59812  35400.000000  0       5761348.945      -3898137.911        578661.803
10 0 59812  35460.000000  0       5667495.619      -3941905.397       1024944.956
10 0 59812  35520.000000  0       5549501.375      -3968167.850       1466886.277
10 0 59812  35580.000000  0       5408010.181      -3976601.462       1902611.907
10 0 59812  35640.000000  0       5243768.295      -3966963.942       2330273.486
10 0 59812  35700.000000  0       5057620.424      -3939096.491       2748056.129
10 0 59812  35760.000000  0       4850505.413      -3892925.344       3154186.306
10 0 59812  35820.000000  0       4623451.509      -3828462.842       3546939.476
10 0 59812  35880.000000  0       4377571.264      -3745808.157       3924647.510
10 0 59812  35940.000000  0       4114056.044      -3645147.621       4285705.907
99
